{"fetched_at":"2026-07-18T17:29:29.751Z","source":"https://celestrak.org/NORAD/elements/gp.php?GROUP=kuiper&FORMAT=JSON","constellation":"kuiper","records":[{"OBJECT_NAME":"KUIPER-00117","OBJECT_ID":"2025-228C","EPOCH":"2026-07-18T05:35:49.410528","CLASSIFICATION_TYPE":"U","MEAN_MOTION":14.79947961,"ECCENTRICITY":0.00008651,"INCLINATION":51.8984,"RA_OF_ASC_NODE":140.8094,"ARG_OF_PERICENTER":72.2225,"MEAN_ANOMALY":287.8832,"EPHEMERIS_TYPE":0,"NORAD_CAT_ID":65949,"ELEMENT_SET_NO":999,"REV_AT_EPOCH":4259,"BSTAR":0.00023010286,"MEAN_MOTION_DOT":0.00001534,"MEAN_MOTION_DDOT":0},{"OBJECT_NAME":"KUIPER-00121","OBJECT_ID":"2025-228D","EPOCH":"2026-07-18T04:54:59.555808","CLASSIFICATION_TYPE":"U","MEAN_MOTION":14.79925015,"ECCENTRICITY":0.00007541,"INCLINATION":51.9002,"RA_OF_ASC_NODE":135.9488,"ARG_OF_PERICENTER":100.637,"MEAN_ANOMALY":259.4677,"EPHEMERIS_TYPE":0,"NORAD_CAT_ID":65950,"ELEMENT_SET_NO":999,"REV_AT_EPOCH":4266,"BSTAR":0.00024308227,"MEAN_MOTION_DOT":0.00001632,"MEAN_MOTION_DDOT":0},{"OBJECT_NAME":"KUIPER-00122","OBJECT_ID":"2025-228E","EPOCH":"2026-07-18T06:16:42.544992","CLASSIFICATION_TYPE":"U","MEAN_MOTION":14.79929836,"ECCENTRICITY":0.00007734,"INCLINATION":51.8988,"RA_OF_ASC_NODE":145.6708,"ARG_OF_PERICENTER":77.4798,"MEAN_ANOMALY":282.6251,"EPHEMERIS_TYPE":0,"NORAD_CAT_ID":65951,"ELEMENT_SET_NO":999,"REV_AT_EPOCH":4253,"BSTAR":0.00022652543,"MEAN_MOTION_DOT":0.00001506,"MEAN_MOTION_DDOT":0},{"OBJECT_NAME":"KUIPER-00123","OBJECT_ID":"2025-228F","EPOCH":"2026-07-18T05:28:04.686528","CLASSIFICATION_TYPE":"U","MEAN_MOTION":14.79940058,"ECCENTRICITY":0.00009033,"INCLINATION":51.8987,"RA_OF_ASC_NODE":145.8319,"ARG_OF_PERICENTER":65.7425,"MEAN_ANOMALY":294.3632,"EPHEMERIS_TYPE":0,"NORAD_CAT_ID":65952,"ELEMENT_SET_NO":999,"REV_AT_EPOCH":4252,"BSTAR":0.00024095777,"MEAN_MOTION_DOT":0.00001616,"MEAN_MOTION_DDOT":0},{"OBJECT_NAME":"KUIPER-00124","OBJECT_ID":"2025-228G","EPOCH":"2026-07-18T05:39:43.204608","CLASSIFICATION_TYPE":"U","MEAN_MOTION":14.79940503,"ECCENTRICITY":0.00008742,"INCLINATION":51.898,"RA_OF_ASC_NODE":138.285,"ARG_OF_PERICENTER":77.4371,"MEAN_ANOMALY":282.6689,"EPHEMERIS_TYPE":0,"NORAD_CAT_ID":65953,"ELEMENT_SET_NO":999,"REV_AT_EPOCH":4263,"BSTAR":0.00023355853,"MEAN_MOTION_DOT":0.0000156,"MEAN_MOTION_DDOT":0},{"OBJECT_NAME":"KUIPER-00125","OBJECT_ID":"2025-228H","EPOCH":"2026-07-18T04:25:48.639936","CLASSIFICATION_TYPE":"U","MEAN_MOTION":14.79927969,"ECCENTRICITY":0.00008491,"INCLINATION":51.9004,"RA_OF_ASC_NODE":123.5568,"ARG_OF_PERICENTER":89.5386,"MEAN_ANOMALY":270.5673,"EPHEMERIS_TYPE":0,"NORAD_CAT_ID":65954,"ELEMENT_SET_NO":999,"REV_AT_EPOCH":4283,"BSTAR":0.0002333262,"MEAN_MOTION_DOT":0.00001558,"MEAN_MOTION_DDOT":0},{"OBJECT_NAME":"KUIPER-00126","OBJECT_ID":"2025-228J","EPOCH":"2026-07-18T06:20:35.025792","CLASSIFICATION_TYPE":"U","MEAN_MOTION":14.79939253,"ECCENTRICITY":0.00009133,"INCLINATION":51.899,"RA_OF_ASC_NODE":143.1902,"ARG_OF_PERICENTER":81.1469,"MEAN_ANOMALY":278.9596,"EPHEMERIS_TYPE":0,"NORAD_CAT_ID":65955,"ELEMENT_SET_NO":999,"REV_AT_EPOCH":4256,"BSTAR":0.00023329615,"MEAN_MOTION_DOT":0.00001558,"MEAN_MOTION_DDOT":0},{"OBJECT_NAME":"KUIPER-00127","OBJECT_ID":"2025-228K","EPOCH":"2026-07-18T04:30:41.719968","CLASSIFICATION_TYPE":"U","MEAN_MOTION":14.799322,"ECCENTRICITY":0.00009128,"INCLINATION":51.901,"RA_OF_ASC_NODE":135.9988,"ARG_OF_PERICENTER":78.6019,"MEAN_ANOMALY":281.5045,"EPHEMERIS_TYPE":0,"NORAD_CAT_ID":65956,"ELEMENT_SET_NO":999,"REV_AT_EPOCH":4266,"BSTAR":0.000018201452,"MEAN_MOTION_DOT":-8.2e-7,"MEAN_MOTION_DDOT":0},{"OBJECT_NAME":"KUIPER-00128","OBJECT_ID":"2025-228L","EPOCH":"2026-07-18T02:29:08.397888","CLASSIFICATION_TYPE":"U","MEAN_MOTION":14.79940287,"ECCENTRICITY":0.0000859,"INCLINATION":51.901,"RA_OF_ASC_NODE":136.4374,"ARG_OF_PERICENTER":80.1223,"MEAN_ANOMALY":279.9836,"EPHEMERIS_TYPE":0,"NORAD_CAT_ID":65957,"ELEMENT_SET_NO":999,"REV_AT_EPOCH":4264,"BSTAR":0.00023360893,"MEAN_MOTION_DOT":0.0000156,"MEAN_MOTION_DDOT":0},{"OBJECT_NAME":"KUIPER-00129","OBJECT_ID":"2025-228M","EPOCH":"2026-07-18T05:02:46.381920","CLASSIFICATION_TYPE":"U","MEAN_MOTION":14.79938489,"ECCENTRICITY":0.00008943,"INCLINATION":51.9005,"RA_OF_ASC_NODE":130.9468,"ARG_OF_PERICENTER":80.0253,"MEAN_ANOMALY":280.0811,"EPHEMERIS_TYPE":0,"NORAD_CAT_ID":65958,"ELEMENT_SET_NO":999,"REV_AT_EPOCH":4273,"BSTAR":0.00024579133,"MEAN_MOTION_DOT":0.00001653,"MEAN_MOTION_DDOT":0},{"OBJECT_NAME":"KUIPER-00130","OBJECT_ID":"2025-228N","EPOCH":"2026-07-18T05:47:30.581088","CLASSIFICATION_TYPE":"U","MEAN_MOTION":14.79926403,"ECCENTRICITY":0.00007748,"INCLINATION":51.9027,"RA_OF_ASC_NODE":133.3433,"ARG_OF_PERICENTER":89.7889,"MEAN_ANOMALY":270.3162,"EPHEMERIS_TYPE":0,"NORAD_CAT_ID":65959,"ELEMENT_SET_NO":999,"REV_AT_EPOCH":3299,"BSTAR":0.00023537067,"MEAN_MOTION_DOT":0.00001573,"MEAN_MOTION_DDOT":0},{"OBJECT_NAME":"KUIPER-00134","OBJECT_ID":"2025-228P","EPOCH":"2026-07-17T23:45:43.951392","CLASSIFICATION_TYPE":"U","MEAN_MOTION":15.41879193,"ECCENTRICITY":0.00067754,"INCLINATION":51.8705,"RA_OF_ASC_NODE":47.4304,"ARG_OF_PERICENTER":61.4893,"MEAN_ANOMALY":298.6777,"EPHEMERIS_TYPE":0,"NORAD_CAT_ID":65960,"ELEMENT_SET_NO":999,"REV_AT_EPOCH":4387,"BSTAR":0.00050948872,"MEAN_MOTION_DOT":0.00021649,"MEAN_MOTION_DDOT":0},{"OBJECT_NAME":"KUIPER-00135","OBJECT_ID":"2025-228Q","EPOCH":"2026-07-18T04:58:54.859296","CLASSIFICATION_TYPE":"U","MEAN_MOTION":14.79931204,"ECCENTRICITY":0.00008634,"INCLINATION":51.9018,"RA_OF_ASC_NODE":133.5468,"ARG_OF_PERICENTER":83.275,"MEAN_ANOMALY":276.831,"EPHEMERIS_TYPE":0,"NORAD_CAT_ID":65961,"ELEMENT_SET_NO":999,"REV_AT_EPOCH":4269,"BSTAR":0.00024336651,"MEAN_MOTION_DOT":0.00001634,"MEAN_MOTION_DDOT":0},{"OBJECT_NAME":"KUIPER-00136","OBJECT_ID":"2025-228R","EPOCH":"2026-07-18T04:14:09.669120","CLASSIFICATION_TYPE":"U","MEAN_MOTION":14.79928742,"ECCENTRICITY":0.00009019,"INCLINATION":51.9005,"RA_OF_ASC_NODE":131.1388,"ARG_OF_PERICENTER":77.6025,"MEAN_ANOMALY":282.5038,"EPHEMERIS_TYPE":0,"NORAD_CAT_ID":65962,"ELEMENT_SET_NO":999,"REV_AT_EPOCH":4272,"BSTAR":0.00024102641,"MEAN_MOTION_DOT":0.00001616,"MEAN_MOTION_DDOT":0},{"OBJECT_NAME":"KUIPER-00137","OBJECT_ID":"2025-228S","EPOCH":"2026-07-18T04:17:53.520288","CLASSIFICATION_TYPE":"U","MEAN_MOTION":14.79898349,"ECCENTRICITY":0.00009882,"INCLINATION":51.9035,"RA_OF_ASC_NODE":128.6218,"ARG_OF_PERICENTER":81.3219,"MEAN_ANOMALY":278.7855,"EPHEMERIS_TYPE":0,"NORAD_CAT_ID":65963,"ELEMENT_SET_NO":999,"REV_AT_EPOCH":4276,"BSTAR":0.00024608778,"MEAN_MOTION_DOT":0.00001654,"MEAN_MOTION_DDOT":0},{"OBJECT_NAME":"KUIPER-00138","OBJECT_ID":"2025-228T","EPOCH":"2026-07-18T05:10:29.513568","CLASSIFICATION_TYPE":"U","MEAN_MOTION":14.79941096,"ECCENTRICITY":0.00008009,"INCLINATION":51.8982,"RA_OF_ASC_NODE":125.8869,"ARG_OF_PERICENTER":85.6345,"MEAN_ANOMALY":274.4709,"EPHEMERIS_TYPE":0,"NORAD_CAT_ID":65964,"ELEMENT_SET_NO":999,"REV_AT_EPOCH":4280,"BSTAR":0.00023519264,"MEAN_MOTION_DOT":0.00001573,"MEAN_MOTION_DDOT":0}]}
