KUIPER-00117            
1 65949U 25228C   26199.23321077  .00001534  00000+0  23010-3 0  9995
2 65949  51.8984 140.8094 0000865  72.2225 287.8832 14.79947961 42590
KUIPER-00121            
1 65950U 25228D   26199.20485597  .00001632  00000+0  24308-3 0  9992
2 65950  51.9002 135.9488 0000754 100.6370 259.4677 14.79925015 42666
KUIPER-00122            
1 65951U 25228E   26199.26160353  .00001506  00000+0  22653-3 0  9990
2 65951  51.8988 145.6708 0000773  77.4798 282.6251 14.79929836 42535
KUIPER-00123            
1 65952U 25228F   26199.22783202  .00001616  00000+0  24096-3 0  9996
2 65952  51.8987 145.8319 0000903  65.7425 294.3632 14.79940058 42528
KUIPER-00124            
1 65953U 25228G   26199.23591672  .00001560  00000+0  23356-3 0  9992
2 65953  51.8980 138.2850 0000874  77.4371 282.6689 14.79940503 42634
KUIPER-00125            
1 65954U 25228H   26199.18459074  .00001558  00000+0  23333-3 0  9998
2 65954  51.9004 123.5568 0000849  89.5386 270.5673 14.79927969 42830
KUIPER-00126            
1 65955U 25228J   26199.26429428  .00001558  00000+0  23330-3 0  9995
2 65955  51.8990 143.1902 0000913  81.1469 278.9596 14.79939253 42561
KUIPER-00127            
1 65956U 25228K   26199.18798287 -.00000082  00000+0  18201-4 0  9993
2 65956  51.9010 135.9988 0000912  78.6019 281.5045 14.79932200 42665
KUIPER-00128            
1 65957U 25228L   26199.10356942  .00001560  00000+0  23361-3 0  9997
2 65957  51.9010 136.4374 0000859  80.1223 279.9836 14.79940287 42647
KUIPER-00129            
1 65958U 25228M   26199.21025905  .00001653  00000+0  24579-3 0  9997
2 65958  51.9005 130.9468 0000894  80.0253 280.0811 14.79938489 42733
KUIPER-00130            
1 65959U 25228N   26199.24132617  .00001573  00000+0  23537-3 0  9994
2 65959  51.9027 133.3433 0000774  89.7889 270.3162 14.79926403 32996
KUIPER-00134            
1 65960U 25228P   26198.99009203  .00021649  00000+0  50949-3 0  9994
2 65960  51.8705  47.4304 0006775  61.4893 298.6777 15.41879193 43878
KUIPER-00135            
1 65961U 25228Q   26199.20757939  .00001634  00000+0  24337-3 0  9990
2 65961  51.9018 133.5468 0000863  83.2750 276.8310 14.79931204 42693
KUIPER-00136            
1 65962U 25228R   26199.17650080  .00001616  00000+0  24103-3 0  9997
2 65962  51.9005 131.1388 0000901  77.6025 282.5038 14.79928742 42728
KUIPER-00137            
1 65963U 25228S   26199.17909167  .00001654  00000+0  24609-3 0  9994
2 65963  51.9035 128.6218 0000988  81.3219 278.7855 14.79898349 42764
KUIPER-00138            
1 65964U 25228T   26199.21561937  .00001573  00000+0  23519-3 0  9998
2 65964  51.8982 125.8869 0000800  85.6345 274.4709 14.79941096 42800
